{
  "norad_id": 65869,
  "name": "STARLINK-35441",
  "history": [
    {
      "epoch": "2026-03-28T16:54:56.773728Z",
      "apogee_km": 475.7311440188978,
      "perigee_km": 474.6983439110827,
      "latitude_deg": -1.0159949249138343e-06,
      "longitude_deg": 126.22750018456048,
      "height_km": 476.22576852089304,
      "semi_major_axis_km": 6853.35174396499,
      "eccentricity": 7.535e-05,
      "inclination_deg": 53.159,
      "raan_deg": 206.0855,
      "arg_perigee_deg": 102.5655,
      "mean_anomaly_deg": 257.543,
      "mean_motion_rev_day": 15.30200109
    },
    {
      "epoch": "2026-03-29T22:41:58.517952Z",
      "apogee_km": 475.6699274104203,
      "perigee_km": 474.76117286227236,
      "latitude_deg": 5.470682887761948e-06,
      "longitude_deg": 32.48335984825924,
      "height_km": 476.4505105744436,
      "semi_major_axis_km": 6853.352550136346,
      "eccentricity": 6.63e-05,
      "inclination_deg": 53.1584,
      "raan_deg": 200.3218,
      "arg_perigee_deg": 137.6832,
      "mean_anomaly_deg": 222.422,
      "mean_motion_rev_day": 15.30199839
    }
  ]
}